     3.00           N: GNSS NAV DATA    E: Galileo          RINEX VERSION / TYPE
PREC2NAV                                20121215 063322 UTC PGM / RUN BY / DATE 
SOURCE: data/tum%W%D.sp3                                    COMMENT             
                                                            END OF HEADER       
E11 2012 11 20  0  0  0  .610880769680E-03  .386813007692E-09  .000000000000E+00
      .100000000000E+01 -.982169968418E+02  .299462014529E-08  .239283582631E+01
     -.453287321864E-05  .123408950824E-03  .112486910039E-04  .544061771829E+04
      .172800000000E+06 -.155218577869E-06  .106996719710E+01  .127437000304E-06
      .956320034077E+00  .952578651609E+02 -.462709811327E+01 -.549281154061E-08
     -.909875067248E-10  .000000000000E+00  .171500000000E+04  .000000000000E+00
      .240000000000E+01  .000000000000E+00  .000000000000E+00  .000000000000E+00
      .176400000000E+06  .000000000000E+00
E12 2012 11 20  0  0  0  .546993259640E-03  .854770794872E-10  .000000000000E+00
      .100000000000E+01 -.888493027025E+02  .305890156926E-08  .147673121579E+01
     -.417347610405E-05  .805576780545E-04  .112867240532E-04  .544061656150E+04
      .172800000000E+06 -.251085380526E-07  .106993977603E+01  .152490590875E-06
      .956331281322E+00  .948007664475E+02 -.300696423194E+01 -.558358400396E-08
      .998941572277E-10  .000000000000E+00  .171500000000E+04  .000000000000E+00
      .240000000000E+01  .000000000000E+00  .000000000000E+00  .000000000000E+00
      .176400000000E+06  .000000000000E+00
E11 2012 11 20  2  0  0  .613664519680E-03  .386523784615E-09  .000000000000E+00
      .200000000000E+01 -.867934965636E+02  .307284434026E-08 -.300404599953E+01
     -.401987140461E-05  .124321900577E-03  .108394812735E-04  .544061641177E+04
      .180000000000E+06 -.126813362938E-07  .106992670539E+01 -.145102661508E-07
      .956319580082E+00  .105608449187E+03  .166240457339E+01 -.557600950034E-08
     -.553658421343E-10  .000000000000E+00  .171500000000E+04  .000000000000E+00
      .240000000000E+01  .000000000000E+00  .000000000000E+00  .000000000000E+00
      .183600000000E+06  .000000000000E+00
E12 2012 11 20  2  0  0  .547606944040E-03  .851063538461E-10  .000000000000E+00
      .200000000000E+01 -.695967153124E+02  .318173071774E-08  .241828825341E+01
     -.330891193904E-05  .815631500640E-04  .102810185502E-04  .544060813333E+04
      .180000000000E+06  .177548908780E-07  .106990030606E+01  .146512790705E-07
      .956331111105E+00  .117012915471E+03 -.305589620691E+01 -.560957577971E-08
     -.230103385211E-10  .000000000000E+00  .171500000000E+04  .000000000000E+00
      .240000000000E+01  .000000000000E+00  .000000000000E+00  .000000000000E+00
      .183600000000E+06  .000000000000E+00
E11 2012 11 20  4  0  0  .616447607960E-03  .386526615385E-09  .000000000000E+00
      .300000000000E+01 -.742647428523E+02  .318025064328E-08 -.211589441076E+01
     -.357237841740E-05  .126568352445E-03  .102295263479E-04  .544061187348E+04
      .187200000000E+06  .222455790843E-07  .106988669560E+01  .827732379689E-08
      .956318948119E+00  .119709177014E+03  .166687787115E+01 -.560626719170E-08
     -.836826588489E-10  .000000000000E+00  .171500000000E+04  .000000000000E+00
      .240000000000E+01  .000000000000E+00  .000000000000E+00  .000000000000E+00
      .190800000000E+06  .000000000000E+00
E12 2012 11 20  4  0  0  .548219580640E-03  .850758358974E-10  .000000000000E+00
      .300000000000E+01 -.773117720332E+02  .310113059738E-08 -.298261620095E+01
     -.365769239859E-05  .785922305904E-04  .936782515256E-05  .544061451943E+04
      .187200000000E+06  .898800896313E-08  .106985990830E+01  .170300971337E-07
      .956330929307E+00  .137407473243E+03 -.304555152632E+01 -.561375430536E-08
     -.227141251947E-10  .000000000000E+00  .171500000000E+04  .000000000000E+00
      .240000000000E+01  .000000000000E+00  .000000000000E+00  .000000000000E+00
      .190800000000E+06  .000000000000E+00
E11 2012 11 20  6  0  0  .619230336840E-03  .386468476923E-09  .000000000000E+00
      .400000000000E+01 -.788188286426E+02  .315430137970E-08 -.119952022729E+01
     -.377775081727E-05  .125997999447E-03  .914871087513E-05  .544061817777E+04
      .194400000000E+06 -.689671241871E-08  .106984618969E+01  .373496536261E-08
      .956318118263E+00  .141002785459E+03  .164312712890E+01 -.564563482143E-08
     -.825295003618E-10  .000000000000E+00  .171500000000E+04  .000000000000E+00
      .240000000000E+01  .000000000000E+00  .000000000000E+00  .000000000000E+00
      .198000000000E+06  .000000000000E+00
E12 2012 11 20  6  0  0  .548832151680E-03  .850768564103E-10  .000000000000E+00
      .400000000000E+01 -.974806104077E+02  .315503295757E-08 -.211412169796E+01
     -.455111026964E-05  .806133240340E-04  .922545236510E-05  .544060881582E+04
      .194400000000E+06 -.441003908239E-07  .106981988957E+01  .458513016634E-07
      .956330856557E+00  .140748481514E+03 -.302142158585E+01 -.557431353761E-08
     -.615019148667E-10  .000000000000E+00  .171500000000E+04  .000000000000E+00
      .240000000000E+01  .000000000000E+00  .000000000000E+00  .000000000000E+00
      .198000000000E+06  .000000000000E+00
E11 2012 11 20  8  0  0  .622013217560E-03  .386523276923E-09  .000000000000E+00
      .500000000000E+01 -.101100022868E+03  .325330590867E-08 -.324197319815E+00
     -.468812492695E-05  .123478795040E-03  .882905467474E-05  .544061130879E+04
      .201600000000E+06 -.301419309906E-07  .106980584192E+01  .137031449007E-07
      .956317561967E+00  .148334416223E+03  .166042812617E+01 -.562144283433E-08
     -.107255820014E-09  .000000000000E+00  .171500000000E+04  .000000000000E+00
      .240000000000E+01  .000000000000E+00  .000000000000E+00  .000000000000E+00
      .205200000000E+06  .000000000000E+00
E12 2012 11 20  8  0  0  .549444529840E-03  .850228435897E-10  .000000000000E+00
      .500000000000E+01 -.108150010697E+03  .316004008939E-08 -.121641113319E+01
     -.502821634367E-05  .813112026103E-04  .935129683831E-05  .544060953098E+04
      .201600000000E+06 -.262570169595E-07  .106978056023E+01 -.815808797013E-07
      .956329994403E+00  .138839971200E+03 -.302650496650E+01 -.558050972927E-08
     -.176983871940E-09  .000000000000E+00  .171500000000E+04  .000000000000E+00
      .240000000000E+01  .000000000000E+00  .000000000000E+00  .000000000000E+00
      .205200000000E+06  .000000000000E+00
E11 2012 11 20 10  0  0  .624796137400E-03  .386531666667E-09  .000000000000E+00
      .600000000000E+01 -.113548639407E+03  .322232638205E-08  .562334261196E+00
     -.525691174388E-05  .125219156043E-03  .924364868679E-05  .544061507543E+04
      .208800000000E+06  .513731664831E-08  .106976578303E+01 -.435928721716E-07
      .956316487925E+00  .139863732309E+03  .166652228464E+01 -.563583988386E-08
     -.170680477366E-09  .000000000000E+00  .171500000000E+04  .000000000000E+00
      .240000000000E+01  .000000000000E+00  .000000000000E+00  .000000000000E+00
      .212400000000E+06  .000000000000E+00
E12 2012 11 20 10  0  0  .550056716640E-03  .850347923077E-10  .000000000000E+00
      .600000000000E+01 -.117923701985E+03  .320932882736E-08 -.308388618553E+00
     -.557504862602E-05  .815039254503E-04  .968701948415E-05  .544061160942E+04
      .208800000000E+06  .296416824115E-07  .106974054432E+01 -.103185975462E-07
      .956328106994E+00  .129898907799E+03 -.304190263824E+01 -.565650710886E-08
     -.233245603276E-09  .000000000000E+00  .171500000000E+04  .000000000000E+00
      .240000000000E+01  .000000000000E+00  .000000000000E+00  .000000000000E+00
      .212400000000E+06  .000000000000E+00
E11 2012 11 20 12  0  0  .627579072720E-03  .386525015385E-09  .000000000000E+00
      .700000000000E+01 -.112714861544E+03  .330342893099E-08  .146698044059E+01
     -.527850257964E-05  .125179317859E-03  .982219196122E-05  .544061238401E+04
      .216000000000E+06  .113586053301E-07  .106972521921E+01 -.469475795941E-08
      .956314944022E+00  .125581975620E+03  .165450015175E+01 -.567736106654E-08
     -.191999542449E-09  .000000000000E+00  .171500000000E+04  .000000000000E+00
      .240000000000E+01  .000000000000E+00  .000000000000E+00  .000000000000E+00
      .219600000000E+06  .000000000000E+00
E12 2012 11 20 12  0  0  .550669118240E-03  .850790615385E-10  .000000000000E+00
      .700000000000E+01 -.111000066726E+03  .331635997375E-08  .575893179195E+00
     -.520075808486E-05  .802848957290E-04  .100802014261E-04  .544060932061E+04
      .216000000000E+06  .130887619163E-08  .106969955420E+01 -.407889798515E-07
      .956326194097E+00  .117126516322E+03 -.303355644468E+01 -.570412138345E-08
     -.222913600281E-09  .000000000000E+00  .171500000000E+04  .000000000000E+00
      .240000000000E+01  .000000000000E+00  .000000000000E+00  .000000000000E+00
      .219600000000E+06  .000000000000E+00
E11 2012 11 20 14  0  0  .630362127240E-03  .386539994872E-09  .000000000000E+00
      .800000000000E+01 -.100918991780E+03  .331379430618E-08  .235733172589E+01
     -.473580673221E-05  .124129045785E-03  .100902947537E-04  .544061366441E+04
      .223200000000E+06  .181688900894E-07  .106968413023E+01 -.416922389144E-07
      .956313453754E+00  .118751265378E+03 -.462640929253E+01 -.570710445386E-08
     -.176061241391E-09  .000000000000E+00  .171500000000E+04  .000000000000E+00
      .240000000000E+01  .000000000000E+00  .000000000000E+00  .000000000000E+00
      .226800000000E+06  .000000000000E+00
